{"type": "FeatureCollection", "features": [ {"type": "Feature", "properties": {"norad_id": 34031, "name": "COSMOS 2251 DEB", "group": "cosmos-2251-debris", "lat": -73.90707801516001, "lon": 46.86985588273772, "alt_km": 685.8611948934777, "timestamp": "2025-12-15T11:38:37.545620+00:00", "meta": {"OBJECT_NAME": "COSMOS 2251 DEB", "OBJECT_ID": "1993-036HS", "EPOCH": "2025-12-14T13:36:37.304352", "MEAN_MOTION": 14.59714184, "ECCENTRICITY": 0.00230015, "INCLINATION": 74.0124, "RA_OF_ASC_NODE": 132.2176, "ARG_OF_PERICENTER": 252.4518, "MEAN_ANOMALY": 236.8209, "EPHEMERIS_TYPE": 0, "CLASSIFICATION_TYPE": "U", "NORAD_CAT_ID": 34031, "ELEMENT_SET_NO": 999, "REV_AT_EPOCH": 88592, "BSTAR": 0.0011879891, "MEAN_MOTION_DOT": 5.661e-05, "MEAN_MOTION_DDOT": 0}, "tle": {"line1": "1 34031U 93036HS  25348.56709843  .00005661  00000+0  11880-2 0  9993", "line2": "2 34031  74.0124 132.2176 0023001 252.4518 236.8209 14.59714184885922"}}, "geometry": {"type": "Point", "coordinates": [46.86985588273772, -73.90707801516001]}}, {"type": "Feature", "properties": {"norad_id": 34035, "name": "COSMOS 2251 DEB", "group": "cosmos-2251-debris", "lat": -1.6613984409310052, "lon": -16.49708446456214, "alt_km": 691.0780566812, "timestamp": "2025-12-15T11:38:37.545630+00:00", "meta": {"OBJECT_NAME": "COSMOS 2251 DEB", "OBJECT_ID": "1993-036HW", "EPOCH": "2025-12-14T09:44:31.043040", "MEAN_MOTION": 14.51970881, "ECCENTRICITY": 0.00448206, "INCLINATION": 74.0658, "RA_OF_ASC_NODE": 346.0063, "ARG_OF_PERICENTER": 347.1333, "MEAN_ANOMALY": 132.1099, "EPHEMERIS_TYPE": 0, "CLASSIFICATION_TYPE": "U", "NORAD_CAT_ID": 34035, "ELEMENT_SET_NO": 999, "REV_AT_EPOCH": 87990, "BSTAR": 0.0019119331, "MEAN_MOTION_DOT": 7.801e-05, "MEAN_MOTION_DDOT": 0}, "tle": {"line1": "1 34035U 93036HW  25348.40591485  .00007801  00000+0  19119-2 0  9992", "line2": "2 34035  74.0658 346.0063 0044820 347.1333 132.1099 14.51970881879903"}}, "geometry": {"type": "Point", "coordinates": [-16.49708446456214, -1.6613984409310052]}}, {"type": "Feature", "properties": {"norad_id": 34036, "name": "COSMOS 2251 DEB", "group": "cosmos-2251-debris", "lat": -34.36149309118939, "lon": 132.42485289004918, "alt_km": 594.7460976567954, "timestamp": "2025-12-15T11:38:37.545639+00:00", "meta": {"OBJECT_NAME": "COSMOS 2251 DEB", "OBJECT_ID": "1993-036HX", "EPOCH": "2025-12-14T19:44:46.384512", "MEAN_MOTION": 14.95168084, "ECCENTRICITY": 0.00119274, "INCLINATION": 74.0192, "RA_OF_ASC_NODE": 145.0615, "ARG_OF_PERICENTER": 176.9106, "MEAN_ANOMALY": 183.2154, "EPHEMERIS_TYPE": 0, "CLASSIFICATION_TYPE": "U", "NORAD_CAT_ID": 34036, "ELEMENT_SET_NO": 999, "REV_AT_EPOCH": 88601, "BSTAR": 0.0021270711, "MEAN_MOTION_DOT": 0.00023437, "MEAN_MOTION_DDOT": 0}, "tle": {"line1": "1 34036U 93036HX  25348.82275908  .00023437  00000+0  21271-2 0  9993", "line2": "2 34036  74.0192 145.0615 0011927 176.9106 183.2154 14.95168084886016"}}, "geometry": {"type": "Point", "coordinates": [132.42485289004918, -34.36149309118939]}}, {"type": "Feature", "properties": {"norad_id": 34037, "name": "COSMOS 2251 DEB", "group": "cosmos-2251-debris", "lat": 31.078274807585327, "lon": -144.5056832818107, "alt_km": 751.5139231334533, "timestamp": "2025-12-15T11:38:37.545649+00:00", "meta": {"OBJECT_NAME": "COSMOS 2251 DEB", "OBJECT_ID": "1993-036HY", "EPOCH": "2025-12-14T21:34:32.297952", "MEAN_MOTION": 14.3467184, "ECCENTRICITY": 0.00519092, "INCLINATION": 74.0525, "RA_OF_ASC_NODE": 46.4906, "ARG_OF_PERICENTER": 95.8335, "MEAN_ANOMALY": 264.8738, "EPHEMERIS_TYPE": 0, "CLASSIFICATION_TYPE": "U", "NORAD_CAT_ID": 34037, "ELEMENT_SET_NO": 999, "REV_AT_EPOCH": 87748, "BSTAR": 0.00038813742, "MEAN_MOTION_DOT": 1.09e-05, "MEAN_MOTION_DDOT": 0}, "tle": {"line1": "1 34037U 93036HY  25348.89898493  .00001090  00000+0  38814-3 0  9994", "line2": "2 34037  74.0525  46.4906 0051909  95.8335 264.8738 14.34671840877488"}}, "geometry": {"type": "Point", "coordinates": [-144.5056832818107, 31.078274807585327]}}, {"type": "Feature", "properties": {"norad_id": 34040, "name": "COSMOS 2251 DEB", "group": "cosmos-2251-debris", "lat": 67.31829561525011, "lon": -162.18497883807237, "alt_km": 998.9383948413579, "timestamp": "2025-12-15T11:38:37.545659+00:00", "meta": {"OBJECT_NAME": "COSMOS 2251 DEB", "OBJECT_ID": "1993-036JB", "EPOCH": "2025-12-14T21:06:51.217344", "MEAN_MOTION": 13.68377312, "ECCENTRICITY": 0.03430934, "INCLINATION": 73.956, "RA_OF_ASC_NODE": 62.3272, "ARG_OF_PERICENTER": 15.2632, "MEAN_ANOMALY": 345.8525, "EPHEMERIS_TYPE": 0, "CLASSIFICATION_TYPE": "U", "NORAD_CAT_ID": 34040, "ELEMENT_SET_NO": 999, "REV_AT_EPOCH": 83629, "BSTAR": 0.00049801952, "MEAN_MOTION_DOT": 6.2e-06, "MEAN_MOTION_DDOT": 0}, "tle": {"line1": "1 34040U 93036JB  25348.87975946  .00000620  00000+0  49802-3 0  9992", "line2": "2 34040  73.9560  62.3272 0343093  15.2632 345.8525 13.68377312836297"}}, "geometry": {"type": "Point", "coordinates": [-162.18497883807237, 67.31829561525011]}}, {"type": "Feature", "properties": {"norad_id": 34045, "name": "COSMOS 2251 DEB", "group": "cosmos-2251-debris", "lat": -5.656190004233782, "lon": 127.43261068437856, "alt_km": 798.4663537574334, "timestamp": "2025-12-15T11:38:37.545669+00:00", "meta": {"OBJECT_NAME": "COSMOS 2251 DEB", "OBJECT_ID": "1993-036JG", "EPOCH": "2025-12-14T21:32:41.614368", "MEAN_MOTION": 14.34069976, "ECCENTRICITY": 0.00257556, "INCLINATION": 74.0392, "RA_OF_ASC_NODE": 306.8828, "ARG_OF_PERICENTER": 29.7404, "MEAN_ANOMALY": 4.3162, "EPHEMERIS_TYPE": 0, "CLASSIFICATION_TYPE": "U", "NORAD_CAT_ID": 34045, "ELEMENT_SET_NO": 999, "REV_AT_EPOCH": 88064, "BSTAR": 0.00010237958, "MEAN_MOTION_DOT": 2.61e-06, "MEAN_MOTION_DDOT": 0}, "tle": {"line1": "1 34045U 93036JG  25348.89770387  .00000261  00000+0  10238-3 0  9993", "line2": "2 34045  74.0392 306.8828 0025755  29.7404   4.3162 14.34069976880649"}}, "geometry": {"type": "Point", "coordinates": [127.43261068437856, -5.656190004233782]}}, {"type": "Feature", "properties": {"norad_id": 34046, "name": "COSMOS 2251 DEB", "group": "cosmos-2251-debris", "lat": -59.23320564365874, "lon": -23.383577233091913, "alt_km": 790.2410720277785, "timestamp": "2025-12-15T11:38:37.545679+00:00", "meta": {"OBJECT_NAME": "COSMOS 2251 DEB", "OBJECT_ID": "1993-036JH", "EPOCH": "2025-12-14T11:43:31.725696", "MEAN_MOTION": 14.46492471, "ECCENTRICITY": 0.00744445, "INCLINATION": 74.0398, "RA_OF_ASC_NODE": 7.2078, "ARG_OF_PERICENTER": 90.1084, "MEAN_ANOMALY": 59.4601, "EPHEMERIS_TYPE": 0, "CLASSIFICATION_TYPE": "U", "NORAD_CAT_ID": 34046, "ELEMENT_SET_NO": 999, "REV_AT_EPOCH": 87851, "BSTAR": 0.0012792476, "MEAN_MOTION_DOT": 4.741e-05, "MEAN_MOTION_DDOT": 0}, "tle": {"line1": "1 34046U 93036JH  25348.48856164  .00004741  00000+0  12792-2 0  9990", "line2": "2 34046  74.0398   7.2078 0074444  90.1084  59.4601 14.46492471878515"}}, "geometry": {"type": "Point", "coordinates": [-23.383577233091913, -59.23320564365874]}}, {"type": "Feature", "properties": {"norad_id": 34050, "name": "COSMOS 2251 DEB", "group": "cosmos-2251-debris", "lat": 33.49062547967508, "lon": 16.222839861155308, "alt_km": 773.711205130593, "timestamp": "2025-12-15T11:38:37.545689+00:00", "meta": {"OBJECT_NAME": "COSMOS 2251 DEB", "OBJECT_ID": "1993-036JM", "EPOCH": "2025-12-14T10:12:11.547360", "MEAN_MOTION": 13.96185255, "ECCENTRICITY": 0.02145618, "INCLINATION": 74.0883, "RA_OF_ASC_NODE": 7.1612, "ARG_OF_PERICENTER": 71.0441, "MEAN_ANOMALY": 39.5222, "EPHEMERIS_TYPE": 0, "CLASSIFICATION_TYPE": "U", "NORAD_CAT_ID": 34050, "ELEMENT_SET_NO": 999, "REV_AT_EPOCH": 85455, "BSTAR": 0.00072007246, "MEAN_MOTION_DOT": 1.179e-05, "MEAN_MOTION_DDOT": 0}, "tle": {"line1": "1 34050U 93036JM  25348.42513365  .00001179  00000+0  72007-3 0  9990", "line2": "2 34050  74.0883   7.1612 0214561  71.0441  39.5222 13.96185255854552"}}, "geometry": {"type": "Point", "coordinates": [16.222839861155308, 33.49062547967508]}}, {"type": "Feature", "properties": {"norad_id": 34053, "name": "COSMOS 2251 DEB", "group": "cosmos-2251-debris", "lat": -71.52238045635806, "lon": 117.91178863537444, "alt_km": 1253.4190009178083, "timestamp": "2025-12-15T11:38:37.545699+00:00", "meta": {"OBJECT_NAME": "COSMOS 2251 DEB", "OBJECT_ID": "1993-036JQ", "EPOCH": "2025-12-14T20:06:32.120064", "MEAN_MOTION": 13.49164296, "ECCENTRICITY": 0.0422366, "INCLINATION": 73.8439, "RA_OF_ASC_NODE": 238.7905, "ARG_OF_PERICENTER": 26.9948, "MEAN_ANOMALY": 335.2455, "EPHEMERIS_TYPE": 0, "CLASSIFICATION_TYPE": "U", "NORAD_CAT_ID": 34053, "ELEMENT_SET_NO": 999, "REV_AT_EPOCH": 82712, "BSTAR": 0.00073936152, "MEAN_MOTION_DOT": 7.85e-06, "MEAN_MOTION_DDOT": 0}, "tle": {"line1": "1 34053U 93036JQ  25348.83787176  .00000785  00000+0  73936-3 0  9995", "line2": "2 34053  73.8439 238.7905 0422366  26.9948 335.2455 13.49164296827128"}}, "geometry": {"type": "Point", "coordinates": [117.91178863537444, -71.52238045635806]}}, {"type": "Feature", "properties": {"norad_id": 34056, "name": "COSMOS 2251 DEB", "group": "cosmos-2251-debris", "lat": 57.77666176261894, "lon": 98.43335293557897, "alt_km": 767.9787068571359, "timestamp": "2025-12-15T11:38:37.545709+00:00", "meta": {"OBJECT_NAME": "COSMOS 2251 DEB", "OBJECT_ID": "1993-036JT", "EPOCH": "2025-12-14T17:29:47.573376", "MEAN_MOTION": 14.2056604, "ECCENTRICITY": 0.01240203, "INCLINATION": 74.0594, "RA_OF_ASC_NODE": 72.8201, "ARG_OF_PERICENTER": 120.1278, "MEAN_ANOMALY": 37.3651, "EPHEMERIS_TYPE": 0, "CLASSIFICATION_TYPE": "U", "NORAD_CAT_ID": 34056, "ELEMENT_SET_NO": 999, "REV_AT_EPOCH": 86439, "BSTAR": 0.00092612825, "MEAN_MOTION_DOT": 2.128e-05, "MEAN_MOTION_DDOT": 0}, "tle": {"line1": "1 34056U 93036JT  25348.72902284  .00002128  00000+0  92613-3 0  9991", "line2": "2 34056  74.0594  72.8201 0124020 120.1278  37.3651 14.20566040864392"}}, "geometry": {"type": "Point", "coordinates": [98.43335293557897, 57.77666176261894]}}]}